[{"OBJECT_NAME":"HYDROGNSS-1","OBJECT_ID":"2025-276DA","EPOCH":"2026-03-09T16:55:29.279136","MEAN_MOTION":15.18118061,"ECCENTRICITY":0.00027273,"INCLINATION":97.4268,"RA_OF_ASC_NODE":143.9079,"ARG_OF_PERICENTER":33.5879,"MEAN_ANOMALY":326.5527,"EPHEMERIS_TYPE":0,"CLASSIFICATION_TYPE":"U","NORAD_CAT_ID":66762,"ELEMENT_SET_NO":999,"REV_AT_EPOCH":1531,"BSTAR":0.00026903168,"MEAN_MOTION_DOT":5.422e-5,"MEAN_MOTION_DDOT":0},{"OBJECT_NAME":"SL-3 R\/B","OBJECT_ID":"1981-103B","EPOCH":"2026-03-09T21:41:31.338816","MEAN_MOTION":15.21379038,"ECCENTRICITY":0.00124427,"INCLINATION":81.1587,"RA_OF_ASC_NODE":213.1807,"ARG_OF_PERICENTER":286.2286,"MEAN_ANOMALY":73.7576,"EPHEMERIS_TYPE":0,"CLASSIFICATION_TYPE":"U","NORAD_CAT_ID":12904,"ELEMENT_SET_NO":999,"REV_AT_EPOCH":97326,"BSTAR":0.00027179641,"MEAN_MOTION_DOT":6.129e-5,"MEAN_MOTION_DDOT":0}]
